ONEWEB-0102             
1 47258U 20100A   25364.57357578  .00000063  00000+0  13956-3 0  9991
2 47258  87.8921  24.1724 0001626  91.7265 268.4049 13.12443795242615
ONEWEB-0109             
1 47259U 20100B   25364.58206375  .00000324  00000+0  86483-3 0  9996
2 47259  87.8925  24.1407 0001599  91.8993 268.2319 13.12442672242448
ONEWEB-0110             
1 47260U 20100C   25364.60917558  .00000066  00000+0  14936-3 0  9990
2 47260  87.8926  24.1196 0001778  83.2253 276.9078 13.12441373242613
ONEWEB-0111             
1 47261U 20100D   25364.56343756 -.00000232  00000+0 -67896-3 0  9999
2 47261  87.8928  24.1471 0001927  90.8305 269.3044 13.12452712242449
ONEWEB-0114             
1 47262U 20100E   25364.59392657  .00000415  00000+0  11183-2 0  9995
2 47262  87.8928  24.1357 0001480 101.9569 258.1725 13.12442005242405
ONEWEB-0117             
1 47263U 20100F   25364.58545352  .00000442  00000+0  11943-2 0  9991
2 47263  87.8925  24.1338 0001712  90.9555 269.1770 13.12441946242418
ONEWEB-0118             
1 47264U 20100G   25364.61933963 -.00000317  00000+0 -91534-3 0  9993
2 47264  87.8925  24.1272 0001705 105.4193 254.7125 13.12440513242613
ONEWEB-0119             
1 47265U 20100H   25364.56848724 -.00000013  00000+0 -72174-4 0  9991
2 47265  87.8919  24.1700 0001713  91.3695 268.7630 13.12444911242580
